STARLINK-11736 [DTC]    
1 64317U 25124A   25190.88859418  .00352698  00000+0  19314-2 0  9995
2 64317  42.9995  53.1519 0005733 242.2799 117.7490 15.78022882  4644
STARLINK-11673 [DTC]    
1 64318U 25124B   25190.94695749  .00221344  00000+0  12391-2 0  9999
2 64318  43.0005  52.7253 0002493 271.0845  88.9739 15.77907913  5812
STARLINK-11671 [DTC]    
1 64319U 25124C   25191.00537541  .00245390  00000+0  13676-2 0  9997
2 64319  43.0029  52.2999 0003448 271.0068  89.0407 15.77936746  5763
STARLINK-11594 [DTC]    
1 64320U 25124D   25191.50001157 -.00109682  00000+0 -86146-3 0  9991
2 64320  43.0004  49.4419 0001594 263.5254 326.9155 15.70870286  5746
STARLINK-11596 [DTC]    
1 64321U 25124E   25191.25002315 -.00064908  00000+0 -50584-3 0  9999
2 64321  43.0004  50.7998 0000969 280.2622  34.8682 15.70862425  5717
STARLINK-11747 [DTC]    
1 64322U 25124F   25191.25002315 -.00877293  00000+0 -69440-2 0  9999
2 64322  43.0005  50.6612 0001552 277.6258  93.5371 15.72917187  5866
STARLINK-11728 [DTC]    
1 64323U 25124G   25190.98585616  .00243683  00000+0  13548-2 0  9995
2 64323  43.0000  52.1425 0003712 257.8658 102.1797 15.77994683  5595
STARLINK-11696 [DTC]    
1 64324U 25124H   25191.48743611  .00286816  00000+0  16001-2 0  9995
2 64324  42.9964  49.0211 0002558 224.6715 135.3949 15.77800186  5843
STARLINK-11698 [DTC]    
1 64325U 25124J   25191.50001157 -.00835662  00000+0 -66874-2 0  9995
2 64325  43.0001  48.9393 0001366 267.7546 165.0890 15.72546228  5847
STARLINK-11678 [DTC]    
1 64326U 25124K   25190.99830798  .00197588  00000+0  15080-2 0  9998
2 64326  42.9998  52.2415 0002890 255.1910 104.8637 15.70822475  5594
STARLINK-11674 [DTC]    
1 64327U 25124L   25191.50001157 -.00840270  00000+0 -65199-2 0  9997
2 64327  43.0001  48.7827 0001313 273.3864 221.7957 15.73274339  5854
STARLINK-11707 [DTC]    
1 64328U 25124M   25190.98238030  .00151101  00000+0  11561-2 0  9991
2 64328  43.0016  52.1140 0003391 269.1293  90.9186 15.70911714  5767
STARLINK-11734 [DTC]    
1 64329U 25124N   25189.69070689  .00235490  00000+0  13280-2 0  9996
2 64329  43.0004  59.6162 0002691 225.5574 134.5076 15.77703034  4461
STARLINK-34252          
1 64330U 25124P   25190.89496200  .00025832  00000+0  62321-3 0  9991
2 64330  43.0039  56.7428 0001168 286.1918  73.8810 15.40716625  4604
STARLINK-34050          
1 64331U 25124Q   25190.91667824  .00016751  00000+0  40763-3 0  9993
2 64331  43.0002  56.2267 0001244 278.7032   3.6789 15.40680894  5661
STARLINK-33782          
1 64332U 25124R   25191.50001157 -.01828627  00000+0 -43762-1 0  9997
2 64332  43.0006  52.6341 0000974 281.9391  94.6099 15.43831474  5728
STARLINK-34207          
1 64333U 25124S   25191.00002315  .00063875  00000+0  15252-2 0  9997
2 64333  43.0013  55.9278 0001413 274.3594  36.2065 15.40668157  5630
STARLINK-34260          
1 64334U 25124T   25190.92170094  .00031636  00000+0  75018-3 0  9995
2 64334  43.0020  56.0732 0002936 153.2799 206.8209 15.41148000  4612
STARLINK-33855          
1 64335U 25124U   25190.97646105  .00043877  00000+0  75181-3 0  9993
2 64335  43.0002  55.6216 0004168 258.9732 101.0659 15.50487177  5633
STARLINK-34223          
1 64336U 25124V   25191.25002315 -.00009046  00000+0 -20950-3 0  9991
2 64336  43.0003  54.2418 0001441 274.5760  83.7843 15.40707495  5784
STARLINK-34216          
1 64337U 25124W   25191.25002315 -.00012697  00000+0 -29707-3 0  9997
2 64337  43.0011  54.3926 0001559 282.3863  13.7637 15.40712047  5772
STARLINK-34218          
1 64338U 25124X   25191.01565718  .00031328  00000+0  75333-3 0  9999
2 64338  43.0015  55.9260 0001208 294.2494  65.8236 15.40732730  5851
STARLINK-34017          
1 64339U 25124Y   25191.03980854  .00054482  00000+0  92689-3 0  9993
2 64339  43.0008  55.2388 0002044 262.5386  97.5242 15.50613159  5869
